[Satellite]
VERSION=1.1
NAME=SJ-6D
NICKNAME=SJ-6D
TLE1=1 29506U 06046B   22342.52731608  .00000736  00000+0  73770-4 0  9996
TLE2=2 29506  97.7856   2.3843 0002421  32.7872 327.3514 14.94338741878130
STATUS=0
